NORAD_CAT_ID,OBJECT_NAME,OBJECT_TYPE,EPOCH,MEAN_MOTION,ECCENTRICITY,INCLINATION,RA_OF_ASC_NODE,ARG_OF_PERICENTER,MEAN_ANOMALY,BSTAR,MEAN_MOTION_DOT,MEAN_MOTION_DDOT,TLE_LINE0,TLE_LINE1,TLE_LINE2,SEMIMAJOR_AXIS,PERIOD,APOGEE,PERIGEE,DECAYED
50200.0,STARLINK-3235,PAYLOAD,2022-07-14 19:24:50,15.08838887,0.0002262,53.2183,107.1401,57.6931,302.428,-5.7143e-06,-3.79e-06,0.0,0 STARLINK-3235,1 50200U 21125AW  22195.80891673 -.00000379  00000-0 -57143-5 0  9995,2 50200  53.2183 107.1401 0002262  57.6931 302.4280 15.08838887 34886,6917.884,95.438,541.314,538.184,0.0
50200.0,STARLINK-3235,PAYLOAD,2022-07-15 03:21:45,15.08847974,0.0002292,53.2185,105.6532,57.82899999999999,302.2925,1.9397e-06,-2.57e-06,0.0,0 STARLINK-3235,1 50200U 21125AW  22196.14011093 -.00000257  00000-0  19397-5 0  9996,2 50200  53.2185 105.6532 0002292  57.8290 302.2925 15.08847974 34936,6917.856,95.437,541.307,538.135,0.0
50200.0,STARLINK-3235,PAYLOAD,2022-07-15 11:18:40,15.08853741,0.0002311,53.2186,104.167,58.2703,301.8514,4.342800000000001e-05,4.03e-06,0.0,0 STARLINK-3235,1 50200U 21125AW  22196.47130446  .00000403  00000-0  43428-4 0  9999,2 50200  53.2186 104.1670 0002311  58.2703 301.8514 15.08853741 35478,6917.8380000000025,95.437,541.302,538.105,0.0
50200.0,STARLINK-3235,PAYLOAD,2022-07-15 17:40:13,15.08857338,0.0002283,53.2184,102.9774,56.3805,303.7405,-9.9964e-05,-1.88e-05,0.0,0 STARLINK-3235,1 50200U 21125AW  22196.73626576 -.00001880  00000-0 -99964-4 0  9990,2 50200  53.2184 102.9774 0002283  56.3805 303.7405 15.08857338 35518,6917.8269999999975,95.436,541.2719999999998,538.113,0.0
50200.0,STARLINK-3235,PAYLOAD,2022-07-16 00:01:46,15.08834967,0.0002288,53.2185,101.788,58.4966,301.625,0.00018907,2.722e-05,0.0,0 STARLINK-3235,1 50200U 21125AW  22197.00123348  .00002722  00000-0  18907-3 0  9991,2 50200  53.2185 101.7880 0002288  58.4966 301.6250 15.08834967 35068,6917.896,95.438,541.344,538.178,0.0
50200.0,STARLINK-3235,PAYLOAD,2022-07-16 11:09:28,15.08843926,0.0002328,53.2189,99.7074,60.459,299.6634,0.00020685,3.006e-05,0.0,0 STARLINK-3235,1 50200U 21125AW  22197.46490878  .00003006  00000-0  20685-3 0  9998,2 50200  53.2189  99.7074 0002328  60.4590 299.6634 15.08843926 35623,6917.868,95.437,541.344,538.123,0.0
50200.0,STARLINK-3235,PAYLOAD,2022-07-16 20:41:46,15.08845648,0.0002354,53.2191,97.9232,61.8859,298.2371,0.00011849,1.598e-05,0.0,0 STARLINK-3235,1 50200U 21125AW  22197.86234890  .00001598  00000-0  11849-3 0  9998,2 50200  53.2191  97.9232 0002354  61.8859 298.2371 15.08845648 35686,6917.863,95.437,541.357,538.1,0.0
50200.0,STARLINK-3235,PAYLOAD,2022-07-17 03:03:20,15.08838255,0.0002276,53.219,96.7349,57.3023,302.8189,3.5665e-05,2.79e-06,0.0,0 STARLINK-3235,1 50200U 21125AW  22198.12731585  .00000279  00000-0  35665-4 0  9999,2 50200  53.2190  96.7349 0002276  57.3023 302.8189 15.08838255 35233,6917.886,95.438,541.325,538.1759999999998,0.0
50200.0,STARLINK-3235,PAYLOAD,2022-07-17 17:21:48,15.088340400000002,0.00022,53.2191,94.0584,56.5224,303.5978,4.9221e-06,-2.1e-06,0.0,0 STARLINK-3235,1 50200U 21125AW  22198.72347830 -.00000210  00000-0  49221-5 0  9991,2 50200  53.2191  94.0584 0002200  56.5224 303.5978 15.08834040 35813,6917.899,95.438,541.286,538.242,0.0
50200.0,STARLINK-3235,PAYLOAD,2022-07-18 02:54:07,15.08833231,0.0002156,53.2189,92.2727,58.9815,301.1389,-1.7084e-05,-5.6e-06,0.0,0 STARLINK-3235,1 50200U 21125AW  22199.12092059 -.00000560  00000-0 -17084-4 0  9996,2 50200  53.2189  92.2727 0002156  58.9815 301.1389 15.08833231 35384,6917.901,95.438,541.258,538.275,0.0
50200.0,STARLINK-3235,PAYLOAD,2022-07-18 20:23:21,15.08842105,0.0002122,53.2186,89.0015,58.26300000000001,301.8568,5.516899999999999e-05,5.9e-06,0.0,0 STARLINK-3235,1 50200U 21125AW  22199.84955344  .00000590  00000-0  55169-4 0  9997,2 50200  53.2186  89.0015 0002122  58.2630 301.8568 15.08842105 35494,6917.874,95.437,541.207,538.271,0.0
50200.0,STARLINK-3235,PAYLOAD,2022-07-19 02:44:54,15.08836809,0.0002126,53.2185,87.8126,56.0,304.1194,2.3887e-06,-2.5e-06,0.0,0 STARLINK-3235,1 50200U 21125AW  22200.11451909 -.00000250  00000-0  23887-5 0  9995,2 50200  53.2185  87.8126 0002126  56.0000 304.1194 15.08836809 35533,6917.89,95.438,541.226,538.284,0.0
50200.0,STARLINK-3235,PAYLOAD,2022-07-19 09:06:26,15.08834295,0.0002066,53.2186,86.6234,55.3603,304.7584,0.00010223,1.339e-05,0.0,0 STARLINK-3235,1 50200U 21125AW  22200.37947905  .00001339  00000-0  10223-3 0  9995,2 50200  53.2186  86.6234 0002066  55.3603 304.7584 15.08834295 36060,6917.898,95.438,541.192,538.3340000000002,0.0
50200.0,STARLINK-3235,PAYLOAD,2022-07-19 21:49:31,15.08845518,0.0001965,53.2183,84.2442,53.7227,306.3947,0.00022034,3.221e-05,0.0,0 STARLINK-3235,1 50200U 21125AW  22200.90938912  .00003221  00000-0  22034-3 0  9997,2 50200  53.2183  84.2442 0001965  53.7227 306.3947 15.08845518 36143,6917.864000000001,95.437,541.0880000000002,538.369,0.0
50200.0,STARLINK-3235,PAYLOAD,2022-07-20 08:57:13,15.08842958,0.0001995,53.2179,82.1626,52.7623,307.3551,0.00013913,1.927e-05,0.0,0 STARLINK-3235,1 50200U 21125AW  22201.37307317  .00001927  00000-0  13913-3 0  9995,2 50200  53.2179  82.1626 0001995  52.7623 307.3551 15.08842958 36216,6917.871,95.437,541.116,538.356,0.0
50200.0,STARLINK-3235,PAYLOAD,2022-07-20 20:04:56,15.08834145,0.0001904,53.2179,80.0814,53.7485,306.3683,4.889e-05,4.9000000000000005e-06,0.0,0 STARLINK-3235,1 50200U 21125AW  22201.83676015  .00000490  00000-0  48890-4 0  9997,2 50200  53.2179  80.0814 0001904  53.7485 306.3683 15.08834145 35795,6917.898,95.438,541.08,538.446,0.0
50200.0,STARLINK-3235,PAYLOAD,2022-07-21 08:48:01,15.08834938,0.0001869,53.2181,77.7023,52.4487,307.6675,5.5174e-05,5.9e-06,0.0,0 STARLINK-3235,1 50200U 21125AW  22202.36668173  .00000590  00000-0  55174-4 0  9996,2 50200  53.2181  77.7023 0001869  52.4487 307.6675 15.08834938 36360,6917.896,95.438,541.054,538.4680000000002,0.0
50200.0,STARLINK-3235,PAYLOAD,2022-07-22 00:41:52,15.08841124,0.0001906,53.218,74.7276,54.8071,305.31,-3.9703e-05,-9.2e-06,0.0,0 STARLINK-3235,1 50200U 21125AW  22203.02907530 -.00000920  00000-0 -39703-4 0  9992,2 50200  53.2180  74.7276 0001906  54.8071 305.3100 15.08841124 36467,6917.877,95.437,541.061,538.423,0.0
50200.0,STARLINK-3235,PAYLOAD,2022-07-22 21:21:53,15.0883646,0.0001756,53.2185,70.8628,52.0296,308.0854,0.00011057,1.472e-05,0.0,0 STARLINK-3235,1 50200U 21125AW  22203.89020072  .00001472  00000-0  11057-3 0  9996,2 50200  53.2185  70.8628 0001756  52.0296 308.0854 15.08836460 36599,6917.891,95.438,540.971,538.5409999999998,0.0
50200.0,STARLINK-3235,PAYLOAD,2022-07-23 08:29:34,15.08845306,0.0001837,53.2186,68.7818,53.4362,306.6799,0.00010487,1.382e-05,0.0,0 STARLINK-3235,1 50200U 21125AW  22204.35387543  .00001382  00000-0  10487-3 0  9993,2 50200  53.2186  68.7818 0001837  53.4362 306.6799 15.08845306 36665,6917.864000000001,95.437,541.0,538.4580000000002,0.0
50200.0,STARLINK-3235,PAYLOAD,2022-07-23 14:51:07,15.08838275,0.0001783,53.218,67.5942,51.8199,308.2953,0.00013489,1.859e-05,0.0,0 STARLINK-3235,1 50200U 21125AW  22204.61883977  .00001859  00000-0  13489-3 0  9998,2 50200  53.2180  67.5942 0001783  51.8199 308.2953 15.08838275 36212,6917.886,95.438,540.984,538.5169999999998,0.0
50200.0,STARLINK-3235,PAYLOAD,2022-07-23 21:12:40,15.08835622,0.0001805,53.2185,66.4021,58.8158,301.301,9.094e-05,1.159e-05,0.0,0 STARLINK-3235,1 50200U 21125AW  22204.88380318  .00001159  00000-0  90940-4 0  9999,2 50200  53.2185  66.4021 0001805  58.8158 301.3010 15.08835622 36749,6917.894,95.438,541.007,538.51,0.0
50200.0,STARLINK-3235,PAYLOAD,2022-07-24 08:20:22,15.08841833,0.000173,53.219,64.3213,53.8661,306.2491,9.3317e-05,1.197e-05,0.0,0 STARLINK-3235,1 50200U 21125AW  22205.34747943  .00001197  00000-0  93317-4 0  9995,2 50200  53.2190  64.3213 0001730  53.8661 306.2491 15.08841833 36812,6917.875,95.437,540.937,538.543,0.0
50200.0,STARLINK-3235,PAYLOAD,2022-07-24 21:03:27,15.08831573,0.0001738,53.2189,61.94300000000001,53.069,307.0461,3.8816e-05,3.3e-06,0.0,0 STARLINK-3235,1 50200U 21125AW  22205.87740644  .00000330  00000-0  38816-4 0  9995,2 50200  53.2189  61.9430 0001738  53.0690 307.0461 15.08831573 36890,6917.906,95.438,540.9730000000002,538.569,0.0
50200.0,STARLINK-3235,PAYLOAD,2022-07-25 12:57:19,15.08834703,0.0001717,53.219,58.9692,51.6958,308.4188,8.4193e-05,1.052e-05,0.0,0 STARLINK-3235,1 50200U 21125AW  22206.53980379  .00001052  00000-0  84193-4 0  9991,2 50200  53.2190  58.9692 0001717  51.6958 308.4188 15.08834703 36996,6917.897,95.438,540.9490000000002,538.5740000000002,0.0
50200.0,STARLINK-3235,PAYLOAD,2022-07-25 19:18:51,15.08837754,0.0001756,53.2189,57.7803,51.6547,308.4603,9.6307e-05,1.245e-05,0.0,0 STARLINK-3235,1 50200U 21125AW  22206.80476220  .00001245  00000-0  96307-4 0  9990,2 50200  53.2189  57.7803 0001756  51.6547 308.4603 15.08837754 36544,6917.887,95.438,540.967,538.5369999999998,0.0
50200.0,STARLINK-3235,PAYLOAD,2022-07-26 00:05:00,15.08838722,0.0001761,53.219,56.8878,51.0473,309.0675,9.6641e-05,1.25e-05,0.0,0 STARLINK-3235,1 50200U 21125AW  22207.00348195  .00001250  00000-0  96641-4 0  9999,2 50200  53.2190  56.8878 0001761  51.0473 309.0675 15.08838722 37066,6917.884,95.438,540.9680000000002,538.531,0.0
50200.0,STARLINK-3235,PAYLOAD,2022-07-26 17:34:16,15.0883224,0.0001798,53.219,53.6171,55.6473,304.4689,-5.3369e-05,-1.137e-05,0.0,0 STARLINK-3235,1 50200U 21125AW  22207.73213431 -.00001137  00000-0 -53369-4 0  9999,2 50200  53.2190  53.6171 0001798  55.6473 304.4689 15.08832240 36687,6917.904,95.438,541.013,538.525,0.0
50200.0,STARLINK-3235,PAYLOAD,2022-07-26 20:45:02,15.08835129,0.0001923,53.219,53.0225,52.0412,308.0754,-2.5017e-05,-6.86e-06,0.0,0 STARLINK-3235,1 50200U 21125AW  22207.86461266 -.00000686  00000-0 -25017-4 0  9991,2 50200  53.2190  53.0225 0001923  52.0412 308.0754 15.08835129 37194,6917.895,95.438,541.091,538.43,0.0
